{
  "links" : {
    "next" : "https://api.nasa.gov/neo/rest/v1/neo/browse?page=5&size=20&api_key=jqAGvNAwUIBu4fl9FSOjdm3V4F7hIglRzI6pdX9d",
    "prev" : "https://api.nasa.gov/neo/rest/v1/neo/browse?page=3&size=20&api_key=jqAGvNAwUIBu4fl9FSOjdm3V4F7hIglRzI6pdX9d",
    "self" : "https://api.nasa.gov/neo/rest/v1/neo/browse?page=4&size=20&api_key=jqAGvNAwUIBu4fl9FSOjdm3V4F7hIglRzI6pdX9d"
  },
  "page" : {
    "size" : 20,
    "total_elements" : 20750,
    "total_pages" : 1038,
    "number" : 4
  },
  "near_earth_objects" : [ {
    "links" : {
      "self" : "https://api.nasa.gov/neo/rest/v1/neo/3092241?api_key=jqAGvNAwUIBu4fl9FSOjdm3V4F7hIglRzI6pdX9d"
    },
    "neo_reference_id" : "3092241",
    "name" : "(1999 VN11)",
    "designation" : "1999 VN11",
    "nasa_jpl_url" : "http://ssd.jpl.nasa.gov/sbdb.cgi?sstr=3092241",
    "absolute_magnitude_h" : 20.3,
    "estimated_diameter" : {
      "kilometers" : {
        "estimated_diameter_min" : 0.2315021222,
        "estimated_diameter_max" : 0.5176544822
      },
      "meters" : {
        "estimated_diameter_min" : 231.5021222103,
        "estimated_diameter_max" : 517.6544821978
      },
      "miles" : {
        "estimated_diameter_min" : 0.1438487052,
        "estimated_diameter_max" : 0.3216554833
      },
      "feet" : {
        "estimated_diameter_min" : 759.5214226325,
        "estimated_diameter_max" : 1698.3415313737
      }
    },
    "is_potentially_hazardous_asteroid" : false,
    "close_approach_data" : [ {
      "close_approach_date" : "1999-11-14",
      "epoch_date_close_approach" : 942566400000,
      "relative_velocity" : {
        "kilometers_per_second" : "17.6976992136",
        "kilometers_per_hour" : "63711.7171688077",
        "miles_per_hour" : "39587.9833708072"
      },
      "miss_distance" : {
        "astronomical" : "0.1856061966",
        "lunar" : "72.2008132935",
        "kilometers" : "27766292",
        "miles" : "17253174"
      },
      "orbiting_body" : "Earth"
    } ],
    "orbital_data" : {
      "orbit_id" : "11",
      "orbit_determination_date" : "2017-04-06 09:17:15",
      "first_observation_date" : "1999-11-06",
      "last_observation_date" : "1999-11-14",
      "data_arc_in_days" : 8,
      "observations_used" : 74,
      "orbit_uncertainty" : "9",
      "minimum_orbit_intersection" : ".171196",
      "jupiter_tisserand_invariant" : "3.113",
      "epoch_osculation" : "2451491.5",
      "eccentricity" : ".5464677379373576",
      "semi_major_axis" : "2.442929380678812",
      "inclination" : "31.06900714741088",
      "ascending_node_longitude" : "44.43388804770564",
      "orbital_period" : "1394.648602426795",
      "perihelion_distance" : "1.107947288078552",
      "perihelion_argument" : "32.64794675760075",
      "aphelion_distance" : "3.777911473279073",
      "perihelion_time" : "2451524.882237575858",
      "mean_anomaly" : "351.3830584231775",
      "mean_motion" : ".2581295384181883",
      "equinox" : "J2000",
      "orbit_class" : {
        "orbit_class_type" : "AMO",
        "orbit_class_range" : "1.017 AU < q (perihelion) < 1.3 AU",
        "orbit_class_description" : "Near-Earth asteroid orbits similar to that of 1221 Amor"
      }
    },
    "is_sentry_object" : false
  }, {
    "links" : {
      "self" : "https://api.nasa.gov/neo/rest/v1/neo/3092243?api_key=jqAGvNAwUIBu4fl9FSOjdm3V4F7hIglRzI6pdX9d"
    },
    "neo_reference_id" : "3092243",
    "name" : "(1999 VU25)",
    "designation" : "1999 VU25",
    "nasa_jpl_url" : "http://ssd.jpl.nasa.gov/sbdb.cgi?sstr=3092243",
    "absolute_magnitude_h" : 23.8,
    "estimated_diameter" : {
      "kilometers" : {
        "estimated_diameter_min" : 0.046190746,
        "estimated_diameter_max" : 0.1032856481
      },
      "meters" : {
        "estimated_diameter_min" : 46.1907460282,
        "estimated_diameter_max" : 103.2856480504
      },
      "miles" : {
        "estimated_diameter_min" : 0.0287015901,
        "estimated_diameter_max" : 0.0641787064
      },
      "feet" : {
        "estimated_diameter_min" : 151.544447199,
        "estimated_diameter_max" : 338.8636855496
      }
    },
    "is_potentially_hazardous_asteroid" : false,
    "close_approach_data" : [ {
      "close_approach_date" : "1999-10-30",
      "epoch_date_close_approach" : 941266800000,
      "relative_velocity" : {
        "kilometers_per_second" : "6.4151466953",
        "kilometers_per_hour" : "23094.5281030635",
        "miles_per_hour" : "14350.0416427063"
      },
      "miss_distance" : {
        "astronomical" : "0.0681165749",
        "lunar" : "26.4973487854",
        "kilometers" : "10190095",
        "miles" : "6331831.5"
      },
      "orbiting_body" : "Earth"
    } ],
    "orbital_data" : {
      "orbit_id" : "11",
      "orbit_determination_date" : "2017-04-06 09:17:13",
      "first_observation_date" : "1999-11-12",
      "last_observation_date" : "1999-11-15",
      "data_arc_in_days" : 3,
      "observations_used" : 13,
      "orbit_uncertainty" : "9",
      "minimum_orbit_intersection" : ".0677632",
      "jupiter_tisserand_invariant" : "3.660",
      "epoch_osculation" : "2451496.5",
      "eccentricity" : ".4787980625219679",
      "semi_major_axis" : "2.023625212281414",
      "inclination" : "5.980943785477264",
      "ascending_node_longitude" : "229.8890160685722",
      "orbital_period" : "1051.461921268407",
      "perihelion_distance" : "1.054717381370467",
      "perihelion_argument" : "161.0326590327533",
      "aphelion_distance" : "2.992533043192361",
      "perihelion_time" : "2451477.144952136215",
      "mean_anomaly" : "6.626789891313548",
      "mean_motion" : ".3423804445202565",
      "equinox" : "J2000",
      "orbit_class" : {
        "orbit_class_type" : "AMO",
        "orbit_class_range" : "1.017 AU < q (perihelion) < 1.3 AU",
        "orbit_class_description" : "Near-Earth asteroid orbits similar to that of 1221 Amor"
      }
    },
    "is_sentry_object" : false
  }, {
    "links" : {
      "self" : "https://api.nasa.gov/neo/rest/v1/neo/3092244?api_key=jqAGvNAwUIBu4fl9FSOjdm3V4F7hIglRzI6pdX9d"
    },
    "neo_reference_id" : "3092244",
    "name" : "(1999 VV25)",
    "designation" : "1999 VV25",
    "nasa_jpl_url" : "http://ssd.jpl.nasa.gov/sbdb.cgi?sstr=3092244",
    "absolute_magnitude_h" : 25.1,
    "estimated_diameter" : {
      "kilometers" : {
        "estimated_diameter_min" : 0.0253837029,
        "estimated_diameter_max" : 0.0567596853
      },
      "meters" : {
        "estimated_diameter_min" : 25.3837029364,
        "estimated_diameter_max" : 56.7596852866
      },
      "miles" : {
        "estimated_diameter_min" : 0.0157726969,
        "estimated_diameter_max" : 0.0352688224
      },
      "feet" : {
        "estimated_diameter_min" : 83.279867942,
        "estimated_diameter_max" : 186.2194458756
      }
    },
    "is_potentially_hazardous_asteroid" : false,
    "close_approach_data" : [ {
      "close_approach_date" : "1999-11-17",
      "epoch_date_close_approach" : 942825600000,
      "relative_velocity" : {
        "kilometers_per_second" : "9.1298082783",
        "kilometers_per_hour" : "32867.3098017589",
        "miles_per_hour" : "20422.468137654"
      },
      "miss_distance" : {
        "astronomical" : "0.024135666",
        "lunar" : "9.3887739182",
        "kilometers" : "3610644.25",
        "miles" : "2243550.25"
      },
      "orbiting_body" : "Earth"
    } ],
    "orbital_data" : {
      "orbit_id" : "12",
      "orbit_determination_date" : "2017-04-06 09:17:13",
      "first_observation_date" : "1999-11-14",
      "last_observation_date" : "1999-11-17",
      "data_arc_in_days" : 3,
      "observations_used" : 25,
      "orbit_uncertainty" : "8",
      "minimum_orbit_intersection" : ".0199116",
      "jupiter_tisserand_invariant" : "3.410",
      "epoch_osculation" : "2451498.5",
      "eccentricity" : ".5584869562416208",
      "semi_major_axis" : "2.22990738280718",
      "inclination" : "7.471034596340768",
      "ascending_node_longitude" : "232.0549200525057",
      "orbital_period" : "1216.266275838112",
      "perihelion_distance" : ".9845331958824796",
      "perihelion_argument" : "204.2803819760318",
      "aphelion_distance" : "3.475281569731882",
      "perihelion_time" : "2451516.886354036350",
      "mean_anomaly" : "354.5578632043178",
      "mean_motion" : ".2959878171019163",
      "equinox" : "J2000",
      "orbit_class" : {
        "orbit_class_type" : "APO",
        "orbit_class_range" : "a (semi-major axis) > 1.0 AU; q (perihelion) < 1.017 AU",
        "orbit_class_description" : "Near-Earth asteroid orbits which cross the Earth’s orbit similar to that of 1862 Apollo"
      }
    },
    "is_sentry_object" : false
  } ]
}